NORAD_CAT_ID,OBJECT_NAME,OBJECT_TYPE,EPOCH,MEAN_MOTION,ECCENTRICITY,INCLINATION,RA_OF_ASC_NODE,ARG_OF_PERICENTER,MEAN_ANOMALY,BSTAR,MEAN_MOTION_DOT,MEAN_MOTION_DDOT,TLE_LINE0,TLE_LINE1,TLE_LINE2,SEMIMAJOR_AXIS,PERIOD,APOGEE,PERIGEE,DECAYED
53163.0,STARLINK-4104,PAYLOAD,2023-02-16 13:15:30,15.08880328,0.0001242,53.2159,139.1465,108.9601,251.1525,0.00099296,0.00015568,0.0,0 STARLINK-4104,1 53163U 22083AH  23047.55243439  .00015568  00000-0  99296-3 0  9997,2 53163  53.2159 139.1465 0001242 108.9601 251.1525 15.08880328 32715,6917.757,95.435,540.481,538.763,0.0
53163.0,STARLINK-4104,PAYLOAD,2023-02-17 05:09:22,15.08829128,0.0002123,53.2158,136.1731,102.3668,257.7561,-0.00016283,-2.878e-05,0.0,0 STARLINK-4104,1 53163U 22083AH  23048.21484292 -.00002878  00000-0 -16283-3 0  9992,2 53163  53.2158 136.1731 0002123 102.3668 257.7561 15.08829128 33441,6917.914,95.438,541.247,538.31,0.0
53163.0,STARLINK-4104,PAYLOAD,2023-02-17 09:55:32,15.08827252,7.62e-05,53.2149,135.2796,357.7506,2.3482,-0.00016643,-2.934e-05,0.0,0 STARLINK-4104,1 53163U 22083AH  23048.41356859 -.00002934  00000-0 -16643-3 0  9994,2 53163  53.2149 135.2796 0000762 357.7506   2.3482 15.08827252 33471,6917.919,95.438,540.312,539.257,0.0
53163.0,STARLINK-4104,PAYLOAD,2023-02-17 14:41:41,15.08820992,0.0001576,53.2156,134.3874,94.274,265.8433,-0.00017153,-3.015e-05,0.0,0 STARLINK-4104,1 53163U 22083AH  23048.61229137 -.00003015  00000-0 -17153-3 0  9992,2 53163  53.2156 134.3874 0001576  94.2740 265.8433 15.08820992 32872,6917.938,95.439,540.894,538.713,0.0
53163.0,STARLINK-4104,PAYLOAD,2023-02-18 06:35:33,15.08821046,0.000138,53.2151,131.413,95.2259,264.8891,-0.00013737,-2.472e-05,0.0,0 STARLINK-4104,1 53163U 22083AH  23049.27469802 -.00002472  00000-0 -13737-3 0  9990,2 53163  53.2151 131.4130 0001380  95.2259 264.8891 15.08821046 32978,6917.938,95.439,540.758,538.849,0.0
53163.0,STARLINK-4104,PAYLOAD,2023-02-18 14:32:30,15.08823097,0.0001397,53.2151,129.9261,95.278,264.8372,-5.9121e-05,-1.228e-05,0.0,0 STARLINK-4104,1 53163U 22083AH  23049.60590300 -.00001228  00000-0 -59121-4 0  9991,2 53163  53.2151 129.9261 0001397  95.2780 264.8372 15.08823097 33650,6917.932,95.439,540.763,538.831,0.0
53163.0,STARLINK-4104,PAYLOAD,2023-02-19 11:12:31,15.08836764,8.4e-05,53.2152,126.0593,124.4182,235.689,0.00040881,6.224e-05,0.0,0 STARLINK-4104,1 53163U 22083AH  23050.46702816  .00006224  00000-0  40881-3 0  9995,2 53163  53.2152 126.0593 0000840 124.4182 235.6890 15.08836764 33780,6917.89,95.438,540.336,539.174,0.0
53163.0,STARLINK-4104,PAYLOAD,2023-02-19 14:23:17,15.0884318,0.0001069,53.2149,125.464,113.9117,246.1987,0.00048242,7.399e-05,0.0,0 STARLINK-4104,1 53163U 22083AH  23050.59950692  .00007399  00000-0  48242-3 0  9999,2 53163  53.2149 125.4640 0001069 113.9117 246.1987 15.08843180 33174,6917.871,95.437,540.475,538.996,0.0
53163.0,STARLINK-4104,PAYLOAD,2023-02-20 11:03:17,15.08858077,0.0001127,53.2147,121.6002,100.1845,259.9274,0.00052514,8.084e-05,0.0,0 STARLINK-4104,1 53163U 22083AH  23051.46062039  .00008084  00000-0  52514-3 0  9994,2 53163  53.2147 121.6002 0001127 100.1845 259.9274 15.08858077 33300,6917.825,95.436,540.47,538.91,0.0
53163.0,STARLINK-4104,PAYLOAD,2023-02-20 14:14:03,15.08865745,0.0001204,53.214,121.0054,98.1788,261.9341,0.0006463,0.0001002,0.0,0 STARLINK-4104,1 53163U 22083AH  23051.59309715  .00010020  00000-0  64630-3 0  9998,2 53163  53.2140 121.0054 0001204  98.1788 261.9341 15.08865745 33951,6917.802,95.436,540.5,538.834,0.0
53163.0,STARLINK-4104,PAYLOAD,2023-02-20 22:10:59,15.08853414,8.95e-05,53.2142,119.5182,109.3335,250.7754,0.00019979,2.894e-05,0.0,0 STARLINK-4104,1 53163U 22083AH  23051.92429626  .00002894  00000-0  19979-3 0  9995,2 53163  53.2142 119.5182 0000895 109.3335 250.7754 15.08853414 34006,6917.839,95.437,540.324,539.085,0.0
53163.0,STARLINK-4104,PAYLOAD,2023-02-21 10:54:04,15.0885361,0.0001283,53.2155,117.1415,97.9669,262.1469,0.00023721,3.491e-05,0.0,0 STARLINK-4104,1 53163U 22083AH  23052.45421503  .00003491  00000-0  23721-3 0  9994,2 53163  53.2155 117.1415 0001283  97.9669 262.1469 15.08853610 33453,6917.839,95.437,540.591,538.816,0.0
53163.0,STARLINK-4104,PAYLOAD,2023-02-21 14:04:50,15.08861791,0.0001305,53.2158,116.5475,93.784,266.3302,0.00049616,7.622e-05,0.0,0 STARLINK-4104,1 53163U 22083AH  23052.58669241  .00007622  00000-0  49616-3 0  9992,2 53163  53.2158 116.5475 0001305  93.7840 266.3302 15.08861791 33478,6917.814,95.436,540.582,538.776,0.0
53163.0,STARLINK-4104,PAYLOAD,2023-02-22 10:44:51,15.08845226,0.0001289,53.2147,112.6791,94.7807,265.3332,0.00040465,6.159e-05,0.0,0 STARLINK-4104,1 53163U 22083AH  23053.44781644  .00006159  00000-0  40465-3 0  9997,2 53163  53.2147 112.6791 0001289  94.7807 265.3332 15.08845226 34231,6917.864,95.437,540.621,538.838,0.0
53163.0,STARLINK-4104,PAYLOAD,2023-02-22 13:55:37,15.08848833,0.0001296,53.2148,112.0844,91.9419,268.1722,0.00054724,8.434e-05,0.0,0 STARLINK-4104,1 53163U 22083AH  23053.58029575  .00008434  00000-0  54724-3 0  9991,2 53163  53.2148 112.0844 0001296  91.9419 268.1722 15.08848833 33624,6917.853,95.437,540.615,538.822,0.0
53163.0,STARLINK-4104,PAYLOAD,2023-02-22 20:17:10,15.08837789,0.0001443,53.2149,110.8931,73.5094,286.6056,0.00038138,5.787e-05,0.0,0 STARLINK-4104,1 53163U 22083AH  23053.84526040  .00005787  00000-0  38138-3 0  9998,2 53163  53.2149 110.8931 0001443  73.5094 286.6056 15.08837789 33664,6917.887,95.438,540.75,538.754,0.0
53163.0,STARLINK-4104,PAYLOAD,2023-02-23 02:38:43,15.08835952,0.0001589,53.2155,109.7072,90.3353,269.7821,0.00064931,0.0001006,0.0,0 STARLINK-4104,1 53163U 22083AH  23054.11022248  .00010060  00000-0  64931-3 0  9990,2 53163  53.2155 109.7072 0001589  90.3353 269.7821 15.08835952 34337,6917.893,95.438,540.857,538.659,0.0
53163.0,STARLINK-4104,PAYLOAD,2023-02-23 09:00:15,15.0883769,0.0001446,53.214,108.5153,100.86,259.2555,0.00042309,6.452e-05,0.0,0 STARLINK-4104,1 53163U 22083AH  23054.37518340  .00006452  00000-0  42309-3 0  9996,2 53163  53.2140 108.5153 0001446 100.8600 259.2555 15.08837690 33745,6917.887,95.438,540.753,538.752,0.0
53163.0,STARLINK-4104,PAYLOAD,2023-02-23 20:07:57,15.08847213,0.0001245,53.2151,106.4353,96.281,263.8324,0.00087219,0.00013623,0.0,0 STARLINK-4104,1 53163U 22083AH  23054.83886351  .00013623  00000-0  87219-3 0  9994,2 53163  53.2151 106.4353 0001245  96.2810 263.8324 15.08847213 33819,6917.858,95.437,540.585,538.862,0.0
53163.0,STARLINK-4104,PAYLOAD,2023-02-24 04:04:53,15.08866383,0.0001166,53.215,104.9486,89.1422,270.9703,0.0012567,0.00019783,0.0,0 STARLINK-4104,1 53163U 22083AH  23055.17005849  .00019783  00000-0  12567-2 0  9993,2 53163  53.2150 104.9486 0001166  89.1422 270.9703 15.08866383 34494,6917.8,95.436,540.471,538.858,0.0
53163.0,STARLINK-4104,PAYLOAD,2023-02-24 10:26:25,15.08878816,0.0001166,53.2149,103.7591,90.8348,269.2777,0.0012956,0.00020414,0.0,0 STARLINK-4104,1 53163U 22083AH  23055.43501183  .00020414  00000-0  12956-2 0  9999,2 53163  53.2149 103.7591 0001166  90.8348 269.2777 15.08878816 33903,6917.762,95.435,540.433,538.82,0.0
53163.0,STARLINK-4104,PAYLOAD,2023-02-24 19:58:43,15.08841461,0.0001206,53.2146,101.9734,106.1438,253.9687,-0.00043821,-7.255e-05,0.0,0 STARLINK-4104,1 53163U 22083AH  23055.83245286 -.00007255  00000-0 -43821-3 0  9998,2 53163  53.2146 101.9734 0001206 106.1438 253.9687 15.08841461 34597,6917.876,95.437,540.575,538.907,0.0
53163.0,STARLINK-4104,PAYLOAD,2023-02-25 11:52:36,15.08826015,9.52e-05,53.2138,99.0002,111.0403,249.0691,5.9224e-05,6.55e-06,0.0,0 STARLINK-4104,1 53163U 22083AH  23056.49486212  .00000655  00000-0  59224-4 0  9997,2 53163  53.2138  99.0002 0000952 111.0403 249.0691 15.08826015 34697,6917.923,95.438,540.447,539.13,0.0
53163.0,STARLINK-4104,PAYLOAD,2023-02-25 19:49:32,15.08827706,0.0001232,53.2136,97.514,103.2805,256.8325,0.0011375,0.00017856,0.0,0 STARLINK-4104,1 53163U 22083AH  23056.82606919  .00017856  00000-0  11375-2 0  9996,2 53163  53.2136  97.5140 0001232 103.2805 256.8325 15.08827706 34117,6917.918,95.438,540.635,538.931,0.0
53163.0,STARLINK-4104,PAYLOAD,2023-02-26 11:43:23,15.08864326,0.0001204,53.2142,94.5403,103.1517,256.9609,0.001488,0.00023489,0.0,0 STARLINK-4104,1 53163U 22083AH  23057.48846359  .00023489  00000-0  14880-2 0  9996,2 53163  53.2142  94.5403 0001204 103.1517 256.9609 15.08864326 34846,6917.806,95.436,540.504,538.838,0.0
53163.0,STARLINK-4104,PAYLOAD,2023-02-26 19:40:19,15.08832781,8.21e-05,53.2156,93.0518,97.6534,262.4551,-0.0002396,-4.098e-05,0.0,0 STARLINK-4104,1 53163U 22083AH  23057.81966680 -.00004098  00000-0 -23960-3 0  9990,2 53163  53.2156  93.0518 0000821  97.6534 262.4551 15.08832781 34895,6917.902,95.438,540.335,539.199,0.0
53163.0,STARLINK-4104,PAYLOAD,2023-02-27 11:34:10,15.08851843,0.0001107,53.2147,90.0789,83.4948,276.6171,0.0024162,0.00038388,0.0,0 STARLINK-4104,1 53163U 22083AH  23058.48207118  .00038388  00000-0  24162-2 0  9999,2 53163  53.2147  90.0789 0001107  83.4948 276.6171 15.08851843 34998,6917.844,95.437,540.475,538.943,0.0
53163.0,STARLINK-4104,PAYLOAD,2023-02-27 19:31:06,15.08866363,7.68e-05,53.2154,88.5913,110.1851,249.9223,0.0021723,0.00034479,0.0,0 STARLINK-4104,1 53163U 22083AH  23058.81326808  .00034479  00000-0  21723-2 0  9991,2 53163  53.2154  88.5913 0000768 110.1851 249.9223 15.08866363 34411,6917.8,95.436,540.196,539.134,0.0
53163.0,STARLINK-4104,PAYLOAD,2023-02-28 11:24:56,15.0887544,0.000124,53.2144,85.6155,102.1553,257.9578,0.0011041,0.00017344,0.0,0 STARLINK-4104,1 53163U 22083AH  23059.47565836  .00017344  00000-0  11041-2 0  9994,2 53163  53.2144  85.6155 0001240 102.1553 257.9578 15.08875440 35141,6917.772,95.435,540.495,538.779,0.0
53163.0,STARLINK-4104,PAYLOAD,2023-02-28 13:00:19,15.0888024,0.0001369,53.2152,85.3196,95.1641,264.9508,0.001167,0.00018354,0.0,0 STARLINK-4104,1 53163U 22083AH  23059.54189668  .00018354  00000-0  11670-2 0  9997,2 53163  53.2152  85.3196 0001369  95.1641 264.9508 15.08880240 34529,6917.757,95.435,540.569,538.675,0.0
